CCSDS_OMM_VERS = 2.0
CREATION_DATE  = 
ORIGINATOR     = 

OBJECT_NAME    = STARLINK-35570
OBJECT_ID      = 2025-236E
CENTER_NAME    = EARTH
REF_FRAME      = TEME
TIME_SYSTEM    = UTC
MEAN_ELEMENT_THEORY = SGP/SGP4

EPOCH          = 2025-11-08T19:37:54.692832
MEAN_MOTION    = 15.74356856
ECCENTRICITY   = .00019
INCLINATION    = 53.1565
RA_OF_ASC_NODE = 308.5238
ARG_OF_PERICENTER = 162.1167
MEAN_ANOMALY   = 197.9920

EPHEMERIS_TYPE = 0
CLASSIFICATION_TYPE = U
NORAD_CAT_ID   = 66090
ELEMENT_SET_NO = 999
REV_AT_EPOCH   = 439
BSTAR          = .25343E-2
MEAN_MOTION_DOT = .391097E-2
MEAN_MOTION_DDOT = 0

CCSDS_OMM_VERS = 2.0
CREATION_DATE  = 
ORIGINATOR     = 

OBJECT_NAME    = STARLINK-35532
OBJECT_ID      = 2025-236F
CENTER_NAME    = EARTH
REF_FRAME      = TEME
TIME_SYSTEM    = UTC
MEAN_ELEMENT_THEORY = SGP/SGP4

EPOCH          = 2025-11-08T19:37:25.398912
MEAN_MOTION    = 15.74364308
ECCENTRICITY   = .0001327
INCLINATION    = 53.1565
RA_OF_ASC_NODE = 308.5209
ARG_OF_PERICENTER = 157.5750
MEAN_ANOMALY   = 202.5328

EPHEMERIS_TYPE = 0
CLASSIFICATION_TYPE = U
NORAD_CAT_ID   = 66091
ELEMENT_SET_NO = 999
REV_AT_EPOCH   = 439
BSTAR          = .23976E-2
MEAN_MOTION_DOT = .369122E-2
MEAN_MOTION_DDOT = 0

CCSDS_OMM_VERS = 2.0
CREATION_DATE  = 
ORIGINATOR     = 

OBJECT_NAME    = STARLINK-35527
OBJECT_ID      = 2025-236G
CENTER_NAME    = EARTH
REF_FRAME      = TEME
TIME_SYSTEM    = UTC
MEAN_ELEMENT_THEORY = SGP/SGP4

EPOCH          = 2025-11-08T19:36:56.426400
MEAN_MOTION    = 15.74349442
ECCENTRICITY   = .0002139
INCLINATION    = 53.1565
RA_OF_ASC_NODE = 308.5188
ARG_OF_PERICENTER = 152.8088
MEAN_ANOMALY   = 207.3044

EPHEMERIS_TYPE = 0
CLASSIFICATION_TYPE = U
NORAD_CAT_ID   = 66092
ELEMENT_SET_NO = 999
REV_AT_EPOCH   = 439
BSTAR          = .2434E-2
MEAN_MOTION_DOT = .374728E-2
MEAN_MOTION_DDOT = 0

CCSDS_OMM_VERS = 2.0
CREATION_DATE  = 
ORIGINATOR     = 

OBJECT_NAME    = STARLINK-35500
OBJECT_ID      = 2025-236H
CENTER_NAME    = EARTH
REF_FRAME      = TEME
TIME_SYSTEM    = UTC
MEAN_ELEMENT_THEORY = SGP/SGP4

EPOCH          = 2025-11-08T19:36:27.102240
MEAN_MOTION    = 15.74376736
ECCENTRICITY   = .0001368
INCLINATION    = 53.1563
RA_OF_ASC_NODE = 308.5162
ARG_OF_PERICENTER = 136.9676
MEAN_ANOMALY   = 223.1451

EPHEMERIS_TYPE = 0
CLASSIFICATION_TYPE = U
NORAD_CAT_ID   = 66093
ELEMENT_SET_NO = 999
REV_AT_EPOCH   = 439
BSTAR          = .28141E-2
MEAN_MOTION_DOT = .437144E-2
MEAN_MOTION_DDOT = 0

CCSDS_OMM_VERS = 2.0
CREATION_DATE  = 
ORIGINATOR     = 

OBJECT_NAME    = STARLINK-35528
OBJECT_ID      = 2025-236J
CENTER_NAME    = EARTH
REF_FRAME      = TEME
TIME_SYSTEM    = UTC
MEAN_ELEMENT_THEORY = SGP/SGP4

EPOCH          = 2025-11-08T19:35:57.969024
MEAN_MOTION    = 15.74282247
ECCENTRICITY   = .0000926
INCLINATION    = 53.1566
RA_OF_ASC_NODE = 308.5138
ARG_OF_PERICENTER = 117.4639
MEAN_ANOMALY   = 242.6475

EPHEMERIS_TYPE = 0
CLASSIFICATION_TYPE = U
NORAD_CAT_ID   = 66094
ELEMENT_SET_NO = 999
REV_AT_EPOCH   = 439
BSTAR          = .1157E-2
MEAN_MOTION_DOT = .173037E-2
MEAN_MOTION_DDOT = 0

CCSDS_OMM_VERS = 2.0
CREATION_DATE  = 
ORIGINATOR     = 

OBJECT_NAME    = STARLINK-35559
OBJECT_ID      = 2025-236K
CENTER_NAME    = EARTH
REF_FRAME      = TEME
TIME_SYSTEM    = UTC
MEAN_ELEMENT_THEORY = SGP/SGP4

EPOCH          = 2025-11-08T19:35:28.955040
MEAN_MOTION    = 15.74382029
ECCENTRICITY   = .0001079
INCLINATION    = 53.1568
RA_OF_ASC_NODE = 308.5112
ARG_OF_PERICENTER = 130.2750
MEAN_ANOMALY   = 229.8365

EPHEMERIS_TYPE = 0
CLASSIFICATION_TYPE = U
NORAD_CAT_ID   = 66095
ELEMENT_SET_NO = 999
REV_AT_EPOCH   = 439
BSTAR          = .30165E-2
MEAN_MOTION_DOT = .47065E-2
MEAN_MOTION_DDOT = 0

CCSDS_OMM_VERS = 2.0
CREATION_DATE  = 
ORIGINATOR     = 

OBJECT_NAME    = STARLINK-34386
OBJECT_ID      = 2025-236L
CENTER_NAME    = EARTH
REF_FRAME      = TEME
TIME_SYSTEM    = UTC
MEAN_ELEMENT_THEORY = SGP/SGP4

EPOCH          = 2025-11-08T19:34:59.738880
MEAN_MOTION    = 15.74367778
ECCENTRICITY   = .0000399
INCLINATION    = 53.1566
RA_OF_ASC_NODE = 308.5087
ARG_OF_PERICENTER = 21.1913
MEAN_ANOMALY   = 338.9124

EPHEMERIS_TYPE = 0
CLASSIFICATION_TYPE = U
NORAD_CAT_ID   = 66096
ELEMENT_SET_NO = 999
REV_AT_EPOCH   = 439
BSTAR          = .27752E-2
MEAN_MOTION_DOT = .430638E-2
MEAN_MOTION_DDOT = 0

CCSDS_OMM_VERS = 2.0
CREATION_DATE  = 
ORIGINATOR     = 

OBJECT_NAME    = STARLINK-35613
OBJECT_ID      = 2025-236M
CENTER_NAME    = EARTH
REF_FRAME      = TEME
TIME_SYSTEM    = UTC
MEAN_ELEMENT_THEORY = SGP/SGP4

EPOCH          = 2025-11-08T19:34:01.460352
MEAN_MOTION    = 15.74394312
ECCENTRICITY   = .0001115
INCLINATION    = 53.1566
RA_OF_ASC_NODE = 308.5041
ARG_OF_PERICENTER = 183.6026
MEAN_ANOMALY   = 176.4987

EPHEMERIS_TYPE = 0
CLASSIFICATION_TYPE = U
NORAD_CAT_ID   = 66097
ELEMENT_SET_NO = 999
REV_AT_EPOCH   = 439
BSTAR          = .30817E-2
MEAN_MOTION_DOT = .481741E-2
MEAN_MOTION_DDOT = 0

CCSDS_OMM_VERS = 2.0
CREATION_DATE  = 
ORIGINATOR     = 

OBJECT_NAME    = STARLINK-34206
OBJECT_ID      = 2025-236N
CENTER_NAME    = EARTH
REF_FRAME      = TEME
TIME_SYSTEM    = UTC
MEAN_ELEMENT_THEORY = SGP/SGP4

EPOCH          = 2025-11-08T19:33:32.673600
MEAN_MOTION    = 15.74367048
ECCENTRICITY   = .0001126
INCLINATION    = 53.1567
RA_OF_ASC_NODE = 308.5020
ARG_OF_PERICENTER = 157.1659
MEAN_ANOMALY   = 202.9411

EPHEMERIS_TYPE = 0
CLASSIFICATION_TYPE = U
NORAD_CAT_ID   = 66098
ELEMENT_SET_NO = 999
REV_AT_EPOCH   = 438
BSTAR          = .29784E-2
MEAN_MOTION_DOT = .464036E-2
MEAN_MOTION_DDOT = 0

CCSDS_OMM_VERS = 2.0
CREATION_DATE  = 
ORIGINATOR     = 

OBJECT_NAME    = STARLINK-34460
OBJECT_ID      = 2025-236P
CENTER_NAME    = EARTH
REF_FRAME      = TEME
TIME_SYSTEM    = UTC
MEAN_ELEMENT_THEORY = SGP/SGP4

EPOCH          = 2025-11-08T19:34:30.481248
MEAN_MOTION    = 15.74396173
ECCENTRICITY   = .000062
INCLINATION    = 53.1567
RA_OF_ASC_NODE = 308.5068
ARG_OF_PERICENTER = 58.3539
MEAN_ANOMALY   = 301.7542

EPHEMERIS_TYPE = 0
CLASSIFICATION_TYPE = U
NORAD_CAT_ID   = 66099
ELEMENT_SET_NO = 999
REV_AT_EPOCH   = 439
BSTAR          = .31877E-2
MEAN_MOTION_DOT = .499469E-2
MEAN_MOTION_DDOT = 0

CCSDS_OMM_VERS = 2.0
CREATION_DATE  = 
ORIGINATOR     = 

OBJECT_NAME    = STARLINK-35609
OBJECT_ID      = 2025-236Q
CENTER_NAME    = EARTH
REF_FRAME      = TEME
TIME_SYSTEM    = UTC
MEAN_ELEMENT_THEORY = SGP/SGP4

EPOCH          = 2025-11-08T19:33:03.175776
MEAN_MOTION    = 15.74359517
ECCENTRICITY   = .0000509
INCLINATION    = 53.1568
RA_OF_ASC_NODE = 308.4990
ARG_OF_PERICENTER = 63.2267
MEAN_ANOMALY   = 296.8805

EPHEMERIS_TYPE = 0
CLASSIFICATION_TYPE = U
NORAD_CAT_ID   = 66100
ELEMENT_SET_NO = 999
REV_AT_EPOCH   = 433
BSTAR          = .27667E-2
MEAN_MOTION_DOT = .429075E-2
MEAN_MOTION_DDOT = 0

CCSDS_OMM_VERS = 2.0
CREATION_DATE  = 
ORIGINATOR     = 

OBJECT_NAME    = STARLINK-35595
OBJECT_ID      = 2025-236R
CENTER_NAME    = EARTH
REF_FRAME      = TEME
TIME_SYSTEM    = UTC
MEAN_ELEMENT_THEORY = SGP/SGP4

EPOCH          = 2025-11-08T19:32:33.518112
MEAN_MOTION    = 15.74370852
ECCENTRICITY   = .0001483
INCLINATION    = 53.1569
RA_OF_ASC_NODE = 308.4965
ARG_OF_PERICENTER = 143.9369
MEAN_ANOMALY   = 216.1751

EPHEMERIS_TYPE = 0
CLASSIFICATION_TYPE = U
NORAD_CAT_ID   = 66101
ELEMENT_SET_NO = 999
REV_AT_EPOCH   = 433
BSTAR          = .25877E-2
MEAN_MOTION_DOT = .400027E-2
MEAN_MOTION_DDOT = 0

