STARLINK-35570          
1 66090U 25236E   25312.81799413  .00391097  00000+0  25343-2 0  9991
2 66090  53.1565 308.5238 0001900 162.1167 197.9920 15.74356856  4394
STARLINK-35532          
1 66091U 25236F   25312.81765508  .00369122  00000+0  23976-2 0  9994
2 66091  53.1565 308.5209 0001327 157.5750 202.5328 15.74364308  4398
STARLINK-35527          
1 66092U 25236G   25312.81731975  .00374728  00000+0  24340-2 0  9990
2 66092  53.1565 308.5188 0002139 152.8088 207.3044 15.74349442  4399
STARLINK-35500          
1 66093U 25236H   25312.81698035  .00437144  00000+0  28141-2 0  9995
2 66093  53.1563 308.5162 0001368 136.9676 223.1451 15.74376736  4393
STARLINK-35528          
1 66094U 25236J   25312.81664316  .00173037  00000+0  11570-2 0  9997
2 66094  53.1566 308.5138 0000926 117.4639 242.6475 15.74282247  4397
STARLINK-35559          
1 66095U 25236K   25312.81630735  .00470650  00000+0  30165-2 0  9998
2 66095  53.1568 308.5112 0001079 130.2750 229.8365 15.74382029  4393
STARLINK-34386          
1 66096U 25236L   25312.81596920  .00430638  00000+0  27752-2 0  9996
2 66096  53.1566 308.5087 0000399  21.1913 338.9124 15.74367778  4395
STARLINK-35613          
1 66097U 25236M   25312.81529468  .00481741  00000+0  30817-2 0  9997
2 66097  53.1566 308.5041 0001115 183.6026 176.4987 15.74394312  4398
STARLINK-34206          
1 66098U 25236N   25312.81496150  .00464036  00000+0  29784-2 0  9998
2 66098  53.1567 308.5020 0001126 157.1659 202.9411 15.74367048  4389
STARLINK-34460          
1 66099U 25236P   25312.81563057  .00499469  00000+0  31877-2 0  9994
2 66099  53.1567 308.5068 0000620  58.3539 301.7542 15.74396173  4394
STARLINK-35609          
1 66100U 25236Q   25312.81462009  .00429075  00000+0  27667-2 0  9990
2 66100  53.1568 308.4990 0000509  63.2267 296.8805 15.74359517  4331
STARLINK-35595          
1 66101U 25236R   25312.81427683  .00400027  00000+0  25877-2 0  9997
2 66101  53.1569 308.4965 0001483 143.9369 216.1751 15.74370852  4336
